[{"OBJECT_NAME":"KUIPER-00016","OBJECT_ID":"2025-088J","EPOCH":"2026-03-09T12:10:56.112096","MEAN_MOTION":14.79911342,"ECCENTRICITY":0.00063895,"INCLINATION":51.8993,"RA_OF_ASC_NODE":112.4008,"ARG_OF_PERICENTER":74.781,"MEAN_ANOMALY":285.3859,"EPHEMERIS_TYPE":0,"CLASSIFICATION_TYPE":"U","NORAD_CAT_ID":63732,"ELEMENT_SET_NO":999,"REV_AT_EPOCH":4730,"BSTAR":0.00067332806,"MEAN_MOTION_DOT":4.913e-5,"MEAN_MOTION_DDOT":0},{"OBJECT_NAME":"DUMMY SAT","OBJECT_ID":"2014-037E","EPOCH":"2026-03-09T21:48:55.254240","MEAN_MOTION":14.82959019,"ECCENTRICITY":0.00042928,"INCLINATION":98.3624,"RA_OF_ASC_NODE":15.0347,"ARG_OF_PERICENTER":271.3917,"MEAN_ANOMALY":88.6803,"EPHEMERIS_TYPE":0,"CLASSIFICATION_TYPE":"U","NORAD_CAT_ID":40073,"ELEMENT_SET_NO":999,"REV_AT_EPOCH":63072,"BSTAR":8.5195748e-5,"MEAN_MOTION_DOT":6.33e-6,"MEAN_MOTION_DDOT":0}]
